{
  "type": "FeatureCollection",
  "features": [
    {
      "type": "Feature",
      "properties": {
        "norad_id": 33791,
        "name": "COSMOS 2251 DEB",
        "group": "cosmos-2251-debris",
        "lat": -16.647123929492295,
        "lon": 10.390181524356692,
        "alt_km": 767.0359469109753,
        "timestamp": "2025-12-24T20:42:21.418049+00:00",
        "meta_object_name": "COSMOS 2251 DEB",
        "meta_object_id": "1993-036AG",
        "meta_epoch": "2025-12-24T04:29:22.559424",
        "meta_mean_motion": 14.43183759,
        "meta_eccentricity": 0.0030098,
        "meta_inclination": 74.1745,
        "meta_ra_of_asc_node": 16.4991,
        "meta_arg_of_pericenter": 211.4481,
        "meta_mean_anomaly": 222.0427,
        "meta_ephemeris_type": 0,
        "meta_classification_type": "U",
        "meta_norad_cat_id": 33791,
        "meta_element_set_no": 999,
        "meta_rev_at_epoch": 88217,
        "meta_bstar": 0.00091449297,
        "meta_mean_motion_dot": 3.066e-05,
        "meta_mean_motion_ddot": 0,
        "tle_line1": "1 33791U 93036AG  25358.18706666  .00003066  00000+0  91449-3 0  9991",
        "tle_line2": "2 33791  74.1745  16.4991 0030098 211.4481 222.0427 14.43183759882174"
      },
      "geometry": {
        "type": "Point",
        "coordinates": [
          10.390181524356692,
          -16.647123929492295
        ]
      }
    },
    {
      "type": "Feature",
      "properties": {
        "norad_id": 33792,
        "name": "COSMOS 2251 DEB",
        "group": "cosmos-2251-debris",
        "lat": 62.1770758737712,
        "lon": 112.80975336187286,
        "alt_km": 1037.2281407931096,
        "timestamp": "2025-12-24T20:42:21.418059+00:00",
        "meta_object_name": "COSMOS 2251 DEB",
        "meta_object_id": "1993-036AH",
        "meta_epoch": "2025-12-24T06:23:44.666016",
        "meta_mean_motion": 13.45845045,
        "meta_eccentricity": 0.04277621,
        "meta_inclination": 73.9013,
        "meta_ra_of_asc_node": 326.9363,
        "meta_arg_of_pericenter": 29.4838,
        "meta_mean_anomaly": 70.7676,
        "meta_ephemeris_type": 0,
        "meta_classification_type": "U",
        "meta_norad_cat_id": 33792,
        "meta_element_set_no": 999,
        "meta_rev_at_epoch": 82597,
        "meta_bstar": 0.0011173506,
        "meta_mean_motion_dot": 1.139e-05,
        "meta_mean_motion_ddot": 0,
        "tle_line1": "1 33792U 93036AH  25358.26648919  .00001139  00000+0  11174-2 0  9992",
        "tle_line2": "2 33792  73.9013 326.9363 0427762  29.4838  70.7676 13.45845045825976"
      },
      "geometry": {
        "type": "Point",
        "coordinates": [
          112.80975336187286,
          62.1770758737712
        ]
      }
    },
    {
      "type": "Feature",
      "properties": {
        "norad_id": 33793,
        "name": "COSMOS 2251 DEB",
        "group": "cosmos-2251-debris",
        "lat": -73.29459069182755,
        "lon": 54.69365785743768,
        "alt_km": 749.5370009649487,
        "timestamp": "2025-12-24T20:42:21.418069+00:00",
        "meta_object_name": "COSMOS 2251 DEB",
        "meta_object_id": "1993-036AJ",
        "meta_epoch": "2025-12-24T03:27:20.431008",
        "meta_mean_motion": 14.27760503,
        "meta_eccentricity": 0.00789087,
        "meta_inclination": 73.9807,
        "meta_ra_of_asc_node": 129.1904,
        "meta_arg_of_pericenter": 277.0719,
        "meta_mean_anomaly": 264.796,
        "meta_ephemeris_type": 0,
        "meta_classification_type": "U",
        "meta_norad_cat_id": 33793,
        "meta_element_set_no": 999,
        "meta_rev_at_epoch": 87369,
        "meta_bstar": 0.00070393774,
        "meta_mean_motion_dot": 1.77e-05,
        "meta_mean_motion_ddot": 0,
        "tle_line1": "1 33793U 93036AJ  25358.14398647  .00001770  00000+0  70394-3 0  9991",
        "tle_line2": "2 33793  73.9807 129.1904 0078908 277.0719 264.7960 14.27760503873694"
      },
      "geometry": {
        "type": "Point",
        "coordinates": [
          54.69365785743768,
          -73.29459069182755
        ]
      }
    },
    {
      "type": "Feature",
      "properties": {
        "norad_id": 33795,
        "name": "COSMOS 2251 DEB",
        "group": "cosmos-2251-debris",
        "lat": 19.415850746109374,
        "lon": 57.66584983850389,
        "alt_km": 555.835878561973,
        "timestamp": "2025-12-24T20:42:21.418079+00:00",
        "meta_object_name": "COSMOS 2251 DEB",
        "meta_object_id": "1993-036AL",
        "meta_epoch": "2025-12-24T06:34:52.272768",
        "meta_mean_motion": 15.05889304,
        "meta_eccentricity": 0.00302807,
        "meta_inclination": 74.0317,
        "meta_ra_of_asc_node": 53.0802,
        "meta_arg_of_pericenter": 132.1271,
        "meta_mean_anomaly": 299.3311,
        "meta_ephemeris_type": 0,
        "meta_classification_type": "U",
        "meta_norad_cat_id": 33795,
        "meta_element_set_no": 999,
        "meta_rev_at_epoch": 90195,
        "meta_bstar": 0.0011831619,
        "meta_mean_motion_dot": 0.00017377,
        "meta_mean_motion_ddot": 0,
        "tle_line1": "1 33795U 93036AL  25358.27421612  .00017377  00000+0  11832-2 0  9997",
        "tle_line2": "2 33795  74.0317  53.0802 0030280 132.1271 299.3311 15.05889304901954"
      },
      "geometry": {
        "type": "Point",
        "coordinates": [
          57.66584983850389,
          19.415850746109374
        ]
      }
    },
    {
      "type": "Feature",
      "properties": {
        "norad_id": 33797,
        "name": "COSMOS 2251 DEB",
        "group": "cosmos-2251-debris",
        "lat": -73.5401622010918,
        "lon": -63.59476581155056,
        "alt_km": 749.669702584858,
        "timestamp": "2025-12-24T20:42:21.418089+00:00",
        "meta_object_name": "COSMOS 2251 DEB",
        "meta_object_id": "1993-036AN",
        "meta_epoch": "2025-12-24T04:57:58.573152",
        "meta_mean_motion": 14.57886511,
        "meta_eccentricity": 0.00603746,
        "meta_inclination": 74.0464,
        "meta_ra_of_asc_node": 13.1647,
        "meta_arg_of_pericenter": 97.5749,
        "meta_mean_anomaly": 335.8844,
        "meta_ephemeris_type": 0,
        "meta_classification_type": "U",
        "meta_norad_cat_id": 33797,
        "meta_element_set_no": 999,
        "meta_rev_at_epoch": 89152,
        "meta_bstar": 0.00036421402,
        "meta_mean_motion_dot": 1.682e-05,
        "meta_mean_motion_ddot": 0,
        "tle_line1": "1 33797U 93036AN  25358.20692793  .00001682  00000+0  36421-3 0  9996",
        "tle_line2": "2 33797  74.0464  13.1647 0060374  97.5749 335.8844 14.57886511891525"
      },
      "geometry": {
        "type": "Point",
        "coordinates": [
          -63.59476581155056,
          -73.5401622010918
        ]
      }
    },
    {
      "type": "Feature",
      "properties": {
        "norad_id": 33798,
        "name": "COSMOS 2251 DEB",
        "group": "cosmos-2251-debris",
        "lat": -59.18645784139786,
        "lon": 84.63037780311849,
        "alt_km": 721.4251880377751,
        "timestamp": "2025-12-24T20:42:21.418099+00:00",
        "meta_object_name": "COSMOS 2251 DEB",
        "meta_object_id": "1993-036AP",
        "meta_epoch": "2025-12-24T01:52:46.797024",
        "meta_mean_motion": 14.44628494,
        "meta_eccentricity": 0.00923378,
        "meta_inclination": 74.0293,
        "meta_ra_of_asc_node": 114.7859,
        "meta_arg_of_pericenter": 233.6999,
        "meta_mean_anomaly": 304.2081,
        "meta_ephemeris_type": 0,
        "meta_classification_type": "U",
        "meta_norad_cat_id": 33798,
        "meta_element_set_no": 999,
        "meta_rev_at_epoch": 88757,
        "meta_bstar": 0.00018186464,
        "meta_mean_motion_dot": 6.34e-06,
        "meta_mean_motion_ddot": 0,
        "tle_line1": "1 33798U 93036AP  25358.07831941  .00000634  00000+0  18186-3 0  9996",
        "tle_line2": "2 33798  74.0293 114.7859 0092337 233.6999 304.2081 14.44628494887576"
      },
      "geometry": {
        "type": "Point",
        "coordinates": [
          84.63037780311849,
          -59.18645784139786
        ]
      }
    },
    {
      "type": "Feature",
      "properties": {
        "norad_id": 33799,
        "name": "COSMOS 2251 DEB",
        "group": "cosmos-2251-debris",
        "lat": -73.96874427795122,
        "lon": -36.84606441097943,
        "alt_km": 649.5867433737149,
        "timestamp": "2025-12-24T20:42:21.418109+00:00",
        "meta_object_name": "COSMOS 2251 DEB",
        "meta_object_id": "1993-036AQ",
        "meta_epoch": "2025-12-24T05:11:49.191648",
        "meta_mean_motion": 14.79784327,
        "meta_eccentricity": 0.00222344,
        "meta_inclination": 74.0314,
        "meta_ra_of_asc_node": 59.1858,
        "meta_arg_of_pericenter": 125.6764,
        "meta_mean_anomaly": 301.7984,
        "meta_ephemeris_type": 0,
        "meta_classification_type": "U",
        "meta_norad_cat_id": 33799,
        "meta_element_set_no": 999,
        "meta_rev_at_epoch": 88981,
        "meta_bstar": 0.0013959747,
        "meta_mean_motion_dot": 0.00010534,
        "meta_mean_motion_ddot": 0,
        "tle_line1": "1 33799U 93036AQ  25358.21654157  .00010534  00000+0  13960-2 0  9999",
        "tle_line2": "2 33799  74.0314  59.1858 0022234 125.6764 301.7984 14.79784327889810"
      },
      "geometry": {
        "type": "Point",
        "coordinates": [
          -36.84606441097943,
          -73.96874427795122
        ]
      }
    }
  ]
}